NORAD_CAT_ID,OBJECT_NAME,OBJECT_TYPE,EPOCH,MEAN_MOTION,ECCENTRICITY,INCLINATION,RA_OF_ASC_NODE,ARG_OF_PERICENTER,MEAN_ANOMALY,BSTAR,MEAN_MOTION_DOT,MEAN_MOTION_DDOT,TLE_LINE0,TLE_LINE1,TLE_LINE2,SEMIMAJOR_AXIS,PERIOD,APOGEE,PERIGEE,DECAYED
52641.0,STARLINK-3991,PAYLOAD,2024-07-12 01:08:46,15.08862472,0.0001564,53.2159,98.1541,81.7997,278.3172,0.0010734,0.00016847,0.0,0 STARLINK-3991,1 52641U 22052AV  24194.04775873  .00016847  00000-0  10734-2 0  9993,2 52641  53.2159  98.1541 0001564  81.7997 278.3172 15.08862472120073,6917.812,95.436,540.759,538.595,0.0
52641.0,STARLINK-3991,PAYLOAD,2024-07-12 10:41:05,15.0885926,0.0001797,53.216,96.3723,80.4139,279.7057,0.00082675,0.00012901,0.0,0 STARLINK-3991,1 52641U 22052AV  24194.44519824  .00012901  00000-0  82675-3 0  9990,2 52641  53.2160  96.3723 0001797  80.4139 279.7057 15.08859260120134,6917.822,95.436,540.93,538.443,0.0
52641.0,STARLINK-3991,PAYLOAD,2024-07-12 17:02:38,15.0883484,0.0001617,53.2141,95.1808,90.5052,269.6125,0.00050068,7.688e-05,0.0,0 STARLINK-3991,1 52641U 22052AV  24194.71016935  .00007688  00000-0  50068-3 0  9992,2 52641  53.2141  95.1808 0001617  90.5052 269.6125 15.08834840120176,6917.896,95.438,540.88,538.643,0.0
52641.0,STARLINK-3991,PAYLOAD,2024-07-12 21:48:46,15.08853054,0.0001492,53.2156,94.2929,84.3638,275.7524,0.00029552,4.42e-05,0.0,0 STARLINK-3991,1 52641U 22052AV  24194.90887679  .00004420  00000-0  29552-3 0  9999,2 52641  53.2156  94.2929 0001492  84.3638 275.7524 15.08853054119838,6917.84,95.437,540.738,538.673,0.0
52641.0,STARLINK-3991,PAYLOAD,2024-07-13 00:59:32,15.08871696,0.0001452,53.2156,93.6961,83.0787,277.037,0.00010562,1.395e-05,0.0,0 STARLINK-3991,1 52641U 22052AV  24195.04134414  .00001395  00000-0  10562-3 0  9996,2 52641  53.2156  93.6961 0001452  83.0787 277.0370 15.08871696120225,6917.784,95.436,540.653,538.644,0.0
52641.0,STARLINK-3991,PAYLOAD,2024-07-13 10:31:50,15.08863232,0.0001261,53.2151,91.9115,93.4521,266.6616,-4.8271e-05,-1.057e-05,0.0,0 STARLINK-3991,1 52641U 22052AV  24195.43877757 -.00001057  00000-0 -48271-4 0  9999,2 52641  53.2151  91.9115 0001261  93.4521 266.6616 15.08863232119919,6917.809,95.436,540.547,538.802,0.0
52641.0,STARLINK-3991,PAYLOAD,2024-07-13 21:39:32,15.08850949,0.0001295,53.2149,89.8321,100.4245,259.6893,7.0846e-05,8.4e-06,0.0,0 STARLINK-3991,1 52641U 22052AV  24195.90245786  .00000840  00000-0  70846-4 0  9992,2 52641  53.2149  89.8321 0001295 100.4245 259.6893 15.08850949120350,6917.847,95.437,540.608,538.816,0.0
52641.0,STARLINK-3991,PAYLOAD,2024-07-13 23:14:55,15.08856694,0.0001205,53.2144,89.5338,107.566,252.5464,-3.1135e-05,-7.84e-06,0.0,0 STARLINK-3991,1 52641U 22052AV  24195.96869539 -.00000784  00000-0 -31135-4 0  9993,2 52641  53.2144  89.5338 0001205 107.5660 252.5464 15.08856694119997,6917.829,95.436,540.528,538.861,0.0
52641.0,STARLINK-3991,PAYLOAD,2024-07-14 10:22:37,15.08851125,0.0001165,53.2151,87.4504,102.1669,257.9454,0.00014231,1.978e-05,0.0,0 STARLINK-3991,1 52641U 22052AV  24196.43237538  .00001978  00000-0  14231-3 0  9995,2 52641  53.2151  87.4504 0001165 102.1669 257.9454 15.08851125120064,6917.846,95.437,540.517,538.905,0.0
52641.0,STARLINK-3991,PAYLOAD,2024-07-14 21:30:19,15.08851125,0.0001411,53.216,85.3699,91.7634,268.352,0.00024225,3.571e-05,0.0,0 STARLINK-3991,1 52641U 22052AV  24196.89605580  .00003571  00000-0  24225-3 0  9996,2 52641  53.2160  85.3699 0001411  91.7634 268.3520 15.08851125120133,6917.846,95.437,540.687,538.735,0.0
52641.0,STARLINK-3991,PAYLOAD,2024-07-15 02:16:28,15.08854509,0.0001454,53.2152,84.476,100.7655,259.3501,0.00032013,4.813e-05,0.0,0 STARLINK-3991,1 52641U 22052AV  24197.09477323  .00004813  00000-0  32013-3 0  9995,2 52641  53.2152  84.4760 0001454 100.7655 259.3501 15.08854509120536,6917.836,95.437,540.707,538.695,0.0
52641.0,STARLINK-3991,PAYLOAD,2024-07-15 21:21:06,15.08836869,0.0001202,53.2141,80.9097,73.3485,286.7639,4.8397e-05,4.82e-06,0.0,0 STARLINK-3991,1 52641U 22052AV  24197.88966080  .00000482  00000-0  48397-4 0  9996,2 52641  53.2141  80.9097 0001202  73.3485 286.7639 15.08836869120653,6917.89,95.438,540.586,538.923,0.0
52641.0,STARLINK-3991,PAYLOAD,2024-07-15 22:56:29,15.08840794,0.000119,53.2142,80.6121,94.6903,265.4225,9.8875e-05,1.286e-05,0.0,0 STARLINK-3991,1 52641U 22052AV  24197.95589912  .00001286  00000-0  98875-4 0  9998,2 52641  53.2142  80.6121 0001190  94.6903 265.4225 15.08840794120293,6917.878,95.438,540.566,538.92,0.0
52641.0,STARLINK-3991,PAYLOAD,2024-07-16 21:11:53,15.08852655,0.0001412,53.2169,76.4496,93.99,266.1254,0.00040825,6.218e-05,0.0,0 STARLINK-3991,1 52641U 22052AV  24198.88325571  .00006218  00000-0  40825-3 0  9991,2 52641  53.2169  76.4496 0001412  93.9900 266.1254 15.08852655120802,6917.842,95.437,540.684,538.73,0.0
52641.0,STARLINK-3991,PAYLOAD,2024-07-17 08:19:35,15.08833446,0.0002183,53.2168,74.364,88.3791,271.7451,7.6497e-05,9.29e-06,0.0,0 STARLINK-3991,1 52641U 22052AV  24199.34693682  .00000929  00000-0  76497-4 0  9992,2 52641  53.2168  74.3640 0002183  88.3791 271.7451 15.08833446120876,6917.9,95.438,541.276,538.255,0.0
52641.0,STARLINK-3991,PAYLOAD,2024-07-17 22:38:03,15.08840218,0.0001483,53.2176,71.6917,105.7912,254.3244,8.8669e-05,1.123e-05,0.0,0 STARLINK-3991,1 52641U 22052AV  24199.94309840  .00001123  00000-0  88669-4 0  9999,2 52641  53.2176  71.6917 0001483 105.7912 254.3244 15.08840218120594,6917.88,95.438,540.771,538.719,0.0
52641.0,STARLINK-3991,PAYLOAD,2024-07-18 08:10:22,15.08845869,0.0001393,53.2178,69.9086,100.3135,259.8014,0.0003699,5.605e-05,0.0,0 STARLINK-3991,1 52641U 22052AV  24200.34053830  .00005605  00000-0  36990-3 0  9999,2 52641  53.2178  69.9086 0001393 100.3135 259.8014 15.08845869120650,6917.862,95.437,540.691,538.764,0.0
52641.0,STARLINK-3991,PAYLOAD,2024-07-18 20:53:27,15.08836531,0.0001624,53.2173,67.5321,109.9496,250.1672,4.8641e-05,4.86e-06,0.0,0 STARLINK-3991,1 52641U 22052AV  24200.87046279  .00000486  00000-0  48641-4 0  9995,2 52641  53.2173  67.5321 0001624 109.9496 250.1672 15.08836531121104,6917.891,95.438,540.879,538.633,0.0
52641.0,STARLINK-3991,PAYLOAD,2024-07-19 00:04:13,15.08849725,0.0001223,53.2164,66.9322,102.4611,257.6518,0.00024316,3.585e-05,0.0,0 STARLINK-3991,1 52641U 22052AV  24201.00293726  .00003585  00000-0  24316-3 0  9997,2 52641  53.2164  66.9322 0001223 102.4611 257.6518 15.08849725121122,6917.851,95.437,540.562,538.87,0.0
52641.0,STARLINK-3991,PAYLOAD,2024-07-19 08:01:09,15.08844876,0.0001278,53.2166,65.4435,87.1355,272.9784,0.00024258,3.575e-05,0.0,0 STARLINK-3991,1 52641U 22052AV  24201.33414064  .00003575  00000-0  24258-3 0  9997,2 52641  53.2166  65.4435 0001278  87.1355 272.9784 15.08844876121179,6917.865,95.437,540.615,538.846,0.0
52641.0,STARLINK-3991,PAYLOAD,2024-07-19 20:44:15,15.08837091,0.0001486,53.2176,63.0678,84.8526,275.2636,5.1973e-05,5.39e-06,0.0,0 STARLINK-3991,1 52641U 22052AV  24201.86406524  .00000539  00000-0  51973-4 0  9999,2 52641  53.2176  63.0678 0001486  84.8526 275.2636 15.08837091121250,6917.889,95.438,540.782,538.726,0.0
52641.0,STARLINK-3991,PAYLOAD,2024-07-19 22:19:37,15.08848696,0.0001207,53.2172,62.7768,108.6343,251.478,0.00022732,3.333e-05,0.0,0 STARLINK-3991,1 52641U 22052AV  24201.93029893  .00003333  00000-0  22732-3 0  9992,2 52641  53.2172  62.7768 0001207 108.6343 251.4780 15.08848696120893,6917.854,95.437,540.554,538.884,0.0
52641.0,STARLINK-3991,PAYLOAD,2024-07-19 23:55:00,15.08849741,0.0001205,53.2172,62.4787,110.0679,250.0443,0.00022677,3.324e-05,0.0,0 STARLINK-3991,1 52641U 22052AV  24201.99653783  .00003324  00000-0  22677-3 0  9997,2 52641  53.2172  62.4787 0001205 110.0679 250.0443 15.08849741121274,6917.851,95.437,540.549,538.882,0.0
52641.0,STARLINK-3991,PAYLOAD,2024-07-20 07:51:57,15.08837832,0.0001311,53.2174,60.9828,88.9556,271.1587,1.4204e-05,-6.2e-07,0.0,0 STARLINK-3991,1 52641U 22052AV  24202.32774407 -.00000062  00000-0  14204-4 0  9997,2 52641  53.2174  60.9828 0001311  88.9556 271.1587 15.08837832121327,6917.887,95.438,540.659,538.845,0.0
52641.0,STARLINK-3991,PAYLOAD,2024-07-20 22:10:24,15.08851132,0.0001284,53.2175,58.31,87.2551,272.8588,0.00018579,2.671e-05,0.0,0 STARLINK-3991,1 52641U 22052AV  24202.92389973  .00002671  00000-0  18579-3 0  9998,2 52641  53.2175  58.3100 0001284  87.2551 272.8588 15.08851132121045,6917.846,95.437,540.6,538.823,0.0
52641.0,STARLINK-3991,PAYLOAD,2024-07-20 23:45:47,15.0885358,0.0001067,53.2167,58.0106,100.6853,259.4259,0.00011693,1.574e-05,0.0,0 STARLINK-3991,1 52641U 22052AV  24202.99013693  .00001574  00000-0  11693-3 0  9999,2 52641  53.2167  58.0106 0001067 100.6853 259.4259 15.08853580121420,6917.839,95.437,540.442,538.966,0.0
52641.0,STARLINK-3991,PAYLOAD,2024-07-21 20:25:49,15.08842376,0.0001318,53.2169,54.1439,92.7608,267.3535,9.0472e-06,-1.44e-06,0.0,0 STARLINK-3991,1 52641U 22052AV  24203.85126515 -.00000144  00000-0  90472-5 0  9990,2 52641  53.2169  54.1439 0001318  92.7608 267.3535 15.08842376121556,6917.873,95.437,540.65,538.826,0.0
52641.0,STARLINK-3991,PAYLOAD,2024-07-22 23:27:22,15.08848975,0.0001141,53.216,49.0914,95.2424,264.8698,0.00011725,1.579e-05,0.0,0 STARLINK-3991,1 52641U 22052AV  24204.97734153  .00001579  00000-0  11725-3 0  9991,2 52641  53.2160  49.0914 0001141  95.2424 264.8698 15.08848975121728,6917.853,95.437,540.507,538.929,0.0
52641.0,STARLINK-3991,PAYLOAD,2024-07-23 23:18:10,15.0883314,0.0001459,53.2173,44.6266,81.1013,279.0144,3.4681e-06,-2.33e-06,0.0,0 STARLINK-3991,1 52641U 22052AV  24205.97095390 -.00000233  00000-0  34681-5 0  9990,2 52641  53.2173  44.6266 0001459  81.1013 279.0144 15.08833140121871,6917.901,95.438,540.776,538.757,0.0
52641.0,STARLINK-3991,PAYLOAD,2024-07-24 13:36:38,15.0883837,0.0001411,53.2184,41.9512,105.0442,255.0706,2.1045e-05,4.7e-07,0.0,0 STARLINK-3991,1 52641U 22052AV  24206.56711053  .00000047  00000-0  21045-4 0  9998,2 52641  53.2184  41.9512 0001411 105.0442 255.0706 15.08838370121594,6917.885,95.438,540.726,538.774,0.0
